0 COSMOS 1579 COOLANT
1 26646U 84069T   13283.94217134  .00000073  00000-0  13068-3 0  2926
2 26646 065.0447 116.6906 0046446 190.7892 169.2198 13.89855234661019
0 COSMOS 1579 COOLANT
1 26646U 84069T   13286.89232286  .00000067  00000-0  12607-3 0  2930
2 26646 065.0445 108.9915 0046486 189.8344 170.1797 13.89856046661429
0 COSMOS 1579 COOLANT
1 26646U 84069T   13289.12292522  .00000070  00000-0  12862-3 0  2946
2 26646 065.0440 103.1676 0046393 188.7465 171.2805 13.89856794661730
0 COSMOS 1579 COOLANT
1 26646U 84069T   13291.85720846  .00000078  00000-0  13540-3 0  2957
2 26646 065.0448 096.0293 0045921 188.0959 171.9361 13.89857960662113
0 COSMOS 1579 COOLANT
1 26646U 84069T   13295.88667696  .00000084  00000-0  13980-3 0  2963
2 26646 065.0438 085.5125 0045017 186.9758 173.0696 13.89859464662675
